#dP2021  1 24  6  0  0.00000000      96 __u+U ITR00 EXT  IAC
## 2142  21600.00000000   900.00000000 59238 0.2500000000000
+  115   C06C07C08C09C10C11C12C13C14C16C19C20C21C22C23C24C25
+        C26C27C28C29C30C32C33C34C35C36C37C38C39C40C43C44C45
+        C46E01E02E03E04E05E07E08E09E11E12E13E14E15E18E19E21
+        E24E25E26E27E30E31E33E36G01G02G03G04G05G06G07G08G09
+        G10G11G12G13G14G15G16G17G18G19G20G21G22G23G24G25G26
+        G27G28G29G30G31G32J01J02J03R01R02R03R04R05R07R08R09
+        R11R12R13R14R15R16R17R18R19R20R21R22R24  0  0  0  0
++        10  8  9 11  9  8  8  9  9  9  9  9 10 10  9  8  9
++         9  8  7 10  8  9  8  8  9  8  8 11  9 10  9  9 10
++        10  9  9  9  8  7  8  7  7  8  9  7  9  7  7  7  9
++         8  8  7  9  8  9  8  8  7  7  8  7  7  8  8  9  7
++         8  7  8  8  9  8  7  8  7  8  7  7  7  7  8  7  7
++         7  9  8  8  8  7 11  8 10  9  8  8 10  9  8  8  8
++         9  8  8  9  8 10  7  9 10  9  9  9  8  0  0  0  0
%c M  cc GPS ccc cccc cccc cccc cccc ccccc ccccc ccccc ccccc
%c cc cc ccc ccc cccc cccc cccc cccc ccccc ccccc ccccc ccccc
%f  0.0000000  0.000000000  0.00000000000  0.000000000000000
%f  0.0000000  0.000000000  0.00000000000  0.000000000000000
%i    0    0    0    0      0      0      0      0         0
%i    0    0    0    0      0      0      0      0         0
/* IAC                                ULTRA-RAPID PREDICTION
/* S/V CLOCKS ARE ALIGNED TO GNSS TIME                      
/* G:C1WC2W R:C1PC2P E:C1XC5X C:C2IC6I J:C1CC2S             
/* PCV:IGS14_2134 OL/AL:FES2004  NONE     YN ORB:CoN CLK:CoN
*  2021 01 24  7  0  0.00000000
PC06 -21437.128256  34672.158974  10211.376870     30.861345
PC07  -7356.417742  33726.580116  24780.368419   -257.286098
PC08 -16278.462538  17639.110255 -34621.328065   -927.981567
PC09  -9550.633646  33635.279766  23510.538108    782.149083
PC10   3110.351029  39247.553150  15877.588963    -98.600940
PC11   2546.303402 -19017.342947  20316.794513   -907.608407
PC12  18203.414275 -20164.311146   6386.104417    750.179577
PC13   1097.925079  23029.318433 -35163.341003    111.280483
PC14  -4325.309235 -27532.417053    681.011850    -26.656241
PC16 -20913.544775  34920.606083  10673.943902   -670.232069
PC19  10349.436049  24458.042016   8612.169207    702.223710
PC20  -1282.203114  26573.496764  -8451.629720   -910.406489
PC21  12739.190575 -12818.739944  21273.543291   -806.247454
PC22  16287.902529   8147.876613  21150.787071   -854.911367
PC23 -26579.267458  -8110.479641   2608.734673   -879.158650
PC24   3259.183938 -16046.174986 -22611.523737   -747.010628
PC25 -17612.053027 -16651.594797 -13859.222211   -908.408816
PC26  20126.646342  -6631.359770 -18147.756975    958.525308
PC27 -22872.636311  15684.476378   2991.190000    471.594673
PC28 -21087.787321    728.637279  18272.067788   -118.002726
PC29   7506.260888  14326.463480 -22742.003046    342.802950
PC30 -10844.207230  21821.272768 -13578.590326    435.402550
PC32 -12642.947067  12920.888355 -21248.127168   -886.041851
PC33 -10423.036584 -24443.296347  -8498.415618   -930.194259
PC34  10334.537004 -21786.678913  14065.463481   -756.074333
PC35  20971.665647  -1185.831218 -18388.341546   -451.084379
PC36  16910.799834  17134.365953  14126.823124   -770.043255
PC37 -20911.742095   5554.818952  17649.352384   -861.122449
PC38 -14280.553345  20821.097796 -33759.383435    125.770618
PC39 -17623.374810  36387.379354  11724.074607     27.740994
PC40  -1936.913371  36917.306769  20434.962781    124.400614
PC43  -7058.172783 -14775.242346  22598.637258   -566.088634
PC44  22440.893446 -16310.906276  -3194.843929      2.573216
PC45  26582.264131   8009.232444  -2677.844973    343.492971
PC46  -2328.575655  16194.088457  22604.673361    437.851050
PE01  23467.854734  13406.495867 -12056.673659  -1031.311674
PE02 -23482.808298 -13338.647487  12140.921280    193.307724
PE03 -16359.099205  -5014.181925 -24159.472277   -390.790476
PE04  17732.429404 -16239.172006  17264.766446   -695.247223
PE05  -5356.969015 -23653.902590 -16972.719542   -310.344396
PE07  -8662.280717  28308.767502    -45.313985   -491.719435
PE08 -17483.754087  16649.752703 -17135.407461   6057.426797
PE09   8410.835852 -28372.997876    -97.925433   5788.791491
PE11  11476.910076 -17104.659445  21265.718951   6423.530201
PE12  27186.579574 -10314.602360   5598.996095   5391.195852
PE13 -11843.341005  17037.682994 -21094.916830    410.825517
PE14   3897.437789 -21512.404870  10200.380189  -1305.516128
PE15 -27130.059933  10402.678372  -5625.626431    832.769643
PE18   3747.276450  24700.852385 -20461.303300  -1426.929823
PE19  15371.766201   7522.234803  24150.624156    186.192473
PE21  16584.400349  23750.168852   6060.419927   -644.564101
PE24    898.199561 -20380.154443 -21471.874682   -706.134102
PE25 -16477.734030 -23796.141488  -6223.566561   -524.968865
PE26  11091.651245  13559.163018 -23846.912439   2229.477716
PE27   -213.714647  20651.033722  21201.202818     44.636867
PE30 -17320.054753   4657.267397  23542.401162   3237.917495
PE31  16756.752581  -5450.347535 -23776.739058   -477.639888
PE33  26439.564782   2320.696936 -13098.735278   -465.112605
PE36 -10370.154737 -13652.042010  24141.432295    450.084100
PG01  11052.806339  13534.487659 -20344.908995    774.735872
PG02  13433.417230 -14190.647263  18655.945377   -569.375717
PG03  12980.310514  23220.190010   -962.788566    -64.401693
PG04   3238.398616  19123.867392  18124.173871   -175.103967
PG05   1190.594708 -20265.594360  16880.677892    -31.814952
PG06  24391.953707  -6080.023363   8717.062191     -4.300228
PG07  23754.503262   7319.173629  10347.540291     33.213695
PG08  -2428.274874  23002.576222 -12779.740589     -7.733274
PG09  12863.176029   8451.308659  21580.861481   -315.968738
PG10 -17342.372990  -2282.289298 -19960.643146    -46.075252
PG11   1332.527170  17325.038816 -20608.316088    -44.351256
PG12  -8799.501778 -24743.487995  -4730.247109      8.665966
PG13  12467.681587 -22797.352928  -5320.292671     89.325329
PG14  17712.999969   4471.461677 -19291.370073     89.864234
PG15  -1222.290493 -22911.212144 -13419.889043   -174.209892
PG16  -4159.337003  19002.647337  17630.476166   -269.651332
PG17  18646.046434  -9157.369576 -16109.161648    384.166883
PG18 -24868.583682  -5531.457229   7611.027276    343.362575
PG19  19327.784061 -14817.809142 -10771.326280    -47.810439
PG20 -20723.905323 -12313.267629 -11506.023052    525.025263
PG21   2422.577654  14819.168711 -21186.575738     89.518267
PG22   8605.682860  23390.612338  -9216.397343   -692.620397
PG23 -19066.300139 -12546.675009 -13638.532290    117.127069
PG24  -6340.056804 -15160.946029 -21154.922874      3.263289
PG25 -17332.971670 -18689.436378   7702.756246     66.137630
PG26 -11783.388258  10314.636779  21390.057936     34.549511
PG27 -12137.106837  23374.954471  -1258.512522    -62.305157
PG28  16117.597161   1644.046467 -20442.886380    625.441833
PG29 -11172.997253  -9639.887918  22043.563128   -281.692380
PG30  26665.516214   -216.288132   -902.904104   -373.833082
PG31 -23420.531315   7233.194591  10719.086883    -95.791553
PG32 -18468.869900  10408.882785 -15802.760130     15.839713
PJ01 -20745.722371  29115.973227 -17797.382693   -337.576343
PJ02 -26559.647694  20487.672455  30432.156517      1.041795
PJ03 -34145.942564  24790.159293   2596.987949     -0.236569
PR01  -8688.626448 -15955.452089 -17902.016428     73.937562
PR02 -10623.431454   6547.001555 -22199.992855    464.147844
PR03  -5806.190204  21991.003622 -11454.185057     29.702967
PR04   2202.401280  24783.136657   5627.704526     71.247476
PR05   8899.399151  13714.717564  19577.833225     65.288103
PR07   5606.368633 -22374.300600  10976.185176    -42.246159
PR08  -2191.210430 -24808.163730  -5518.392509    -57.015280
PR09  19655.259138   2303.419617 -16119.937876     20.277911
PR11 -11264.058020 -15596.671035 -16737.712107      4.219253
PR12 -21907.156418 -13094.915090   -164.940047    199.215133
PR13 -19763.235753  -2702.666962  15882.709443    -49.726662
PR14  -5654.740689   9523.724525  22985.235804     60.197895
PR15  11282.121013  15894.620442  16465.864885    105.746667
PR16  22317.360119  12184.002400   -734.890712    -10.531245
PR17 -17417.600252  15204.388851 -10800.392699    393.956041
PR18  -2663.214742  12681.600843 -21938.428630     64.228887
PR19  12772.020750   4271.124021 -21655.083617   -129.180284
PR20  23078.821260  -8227.805424  -7161.162880   -431.817820
PR21  16664.233308 -15214.069625  11879.614377   -182.611919
PR22   1726.033257 -12255.694173  22314.338722    -94.151367
PR24 -23085.000897   8750.608211   6463.620197     28.930750
EOF
